0 FENGYUN 1C DEB
1 36735U 99025EBH 13281.11814980  .00002485  00000-0  99500-3 0  1724
2 36735 099.1119 034.9944 0106716 209.3758 150.1510 14.26233377306105
0 FENGYUN 1C DEB
1 36735U 99025EBH 13284.13478804  .00002536  00000-0  10162-2 0  1734
2 36735 099.1103 038.1256 0105131 201.4710 158.2263 14.26250282306536
0 FENGYUN 1C DEB
1 36735U 99025EBH 13285.53786011  .00002769  00000-0  11113-2 0  1747
2 36735 099.0908 039.5685 0102137 200.6790 159.1683 14.26264829306731
0 FENGYUN 1C DEB
1 36735U 99025EBH 13287.15135251  .00003661  00000-0  14455-2 0  1756
2 36735 099.1083 041.2631 0112323 191.3299 168.7432 14.26286650306964
0 FENGYUN 1C DEB
1 36735U 99025EBH 13287.50207312  .00002956  00000-0  11745-2 0  1769
2 36735 099.1034 041.6119 0109673 192.4501 167.3443 14.26280668307014
0 FENGYUN 1C DEB
1 36735U 99025EBH 13290.16786581  .00003011  00000-0  11952-2 0  1779
2 36735 099.1158 044.4103 0110056 183.9174 176.1555 14.26298229307398
0 FENGYUN 1C DEB
1 36735U 99025EBH 13291.14998003  .00003124  00000-0  12319-2 0  1786
2 36735 099.1097 045.4200 0114916 179.1047 181.1572 14.26308159307539
0 FENGYUN 1C DEB
1 36735U 99025EBH 13293.53508716  .00003487  00000-0  13808-2 0  1796
2 36735 099.0990 047.8843 0109490 175.5669 184.9494 14.26335335307877
